CCSDS_OMM_VERS = 2.0
CREATION_DATE  = 
ORIGINATOR     = 

OBJECT_NAME    = DELTA 2 R/B(1)
OBJECT_ID      = 1990-008B
CENTER_NAME    = EARTH
REF_FRAME      = TEME
TIME_SYSTEM    = UTC
MEAN_ELEMENT_THEORY = SGP/SGP4

EPOCH          = 2026-01-19T16:41:48.241536
MEAN_MOTION    = 15.49067605
ECCENTRICITY   = .01015401
INCLINATION    = 35.6055
RA_OF_ASC_NODE = 134.7392
ARG_OF_PERICENTER = 165.4275
MEAN_ANOMALY   = 194.9421

EPHEMERIS_TYPE = 0
CLASSIFICATION_TYPE = U
NORAD_CAT_ID   = 20453
ELEMENT_SET_NO = 999
REV_AT_EPOCH   = 91851
BSTAR          = .78340333E-3
MEAN_MOTION_DOT = .54471E-3
MEAN_MOTION_DDOT = 0

CCSDS_OMM_VERS = 2.0
CREATION_DATE  = 
ORIGINATOR     = 

OBJECT_NAME    = COSMOS 2058
OBJECT_ID      = 1990-010A
CENTER_NAME    = EARTH
REF_FRAME      = TEME
TIME_SYSTEM    = UTC
MEAN_ELEMENT_THEORY = SGP/SGP4

EPOCH          = 2026-01-19T17:05:28.604832
MEAN_MOTION    = 15.10838075
ECCENTRICITY   = .00108764
INCLINATION    = 82.4674
RA_OF_ASC_NODE = 95.6752
ARG_OF_PERICENTER = 136.8284
MEAN_ANOMALY   = 223.3800

EPHEMERIS_TYPE = 0
CLASSIFICATION_TYPE = U
NORAD_CAT_ID   = 20465
ELEMENT_SET_NO = 999
REV_AT_EPOCH   = 93484
BSTAR          = .20549881E-3
MEAN_MOTION_DOT = .3448E-4
MEAN_MOTION_DDOT = 0

CCSDS_OMM_VERS = 2.0
CREATION_DATE  = 
ORIGINATOR     = 

OBJECT_NAME    = SL-14 R/B
OBJECT_ID      = 1990-010B
CENTER_NAME    = EARTH
REF_FRAME      = TEME
TIME_SYSTEM    = UTC
MEAN_ELEMENT_THEORY = SGP/SGP4

EPOCH          = 2026-01-19T20:30:57.844224
MEAN_MOTION    = 14.83513292
ECCENTRICITY   = .00213644
INCLINATION    = 82.5046
RA_OF_ASC_NODE = 313.2536
ARG_OF_PERICENTER = 99.8946
MEAN_ANOMALY   = 260.4683

EPHEMERIS_TYPE = 0
CLASSIFICATION_TYPE = U
NORAD_CAT_ID   = 20466
ELEMENT_SET_NO = 999
REV_AT_EPOCH   = 92124
BSTAR          = .54361588E-4
MEAN_MOTION_DOT = .473E-5
MEAN_MOTION_DDOT = 0

CCSDS_OMM_VERS = 2.0
CREATION_DATE  = 
ORIGINATOR     = 

OBJECT_NAME    = SL-14 R/B
OBJECT_ID      = 1990-018B
CENTER_NAME    = EARTH
REF_FRAME      = TEME
TIME_SYSTEM    = UTC
MEAN_ELEMENT_THEORY = SGP/SGP4

EPOCH          = 2026-01-19T16:34:19.568928
MEAN_MOTION    = 14.82089182
ECCENTRICITY   = .00149402
INCLINATION    = 82.5208
RA_OF_ASC_NODE = 268.8973
ARG_OF_PERICENTER = 252.0945
MEAN_ANOMALY   = 107.8641

EPHEMERIS_TYPE = 0
CLASSIFICATION_TYPE = U
NORAD_CAT_ID   = 20511
ELEMENT_SET_NO = 999
REV_AT_EPOCH   = 91532
BSTAR          = .47077621E-4
MEAN_MOTION_DOT = .398E-5
MEAN_MOTION_DDOT = 0

CCSDS_OMM_VERS = 2.0
CREATION_DATE  = 
ORIGINATOR     = 

OBJECT_NAME    = HST
OBJECT_ID      = 1990-037B
CENTER_NAME    = EARTH
REF_FRAME      = TEME
TIME_SYSTEM    = UTC
MEAN_ELEMENT_THEORY = SGP/SGP4

EPOCH          = 2026-01-19T15:58:49.442592
MEAN_MOTION    = 15.28599511
ECCENTRICITY   = .00016571
INCLINATION    = 28.4680
RA_OF_ASC_NODE = 14.2260
ARG_OF_PERICENTER = 286.0146
MEAN_ANOMALY   = 74.0267

EPHEMERIS_TYPE = 0
CLASSIFICATION_TYPE = U
NORAD_CAT_ID   = 20580
ELEMENT_SET_NO = 999
REV_AT_EPOCH   = 76580
BSTAR          = .26196638E-3
MEAN_MOTION_DOT = .7728E-4
MEAN_MOTION_DDOT = 0

CCSDS_OMM_VERS = 2.0
CREATION_DATE  = 
ORIGINATOR     = 

OBJECT_NAME    = SL-16 R/B
OBJECT_ID      = 1990-046B
CENTER_NAME    = EARTH
REF_FRAME      = TEME
TIME_SYSTEM    = UTC
MEAN_ELEMENT_THEORY = SGP/SGP4

EPOCH          = 2026-01-19T18:40:52.608288
MEAN_MOTION    = 14.15007819
ECCENTRICITY   = .0013736
INCLINATION    = 70.9995
RA_OF_ASC_NODE = 40.6348
ARG_OF_PERICENTER = 8.3102
MEAN_ANOMALY   = 351.8245

EPHEMERIS_TYPE = 0
CLASSIFICATION_TYPE = U
NORAD_CAT_ID   = 20625
ELEMENT_SET_NO = 999
REV_AT_EPOCH   = 84147
BSTAR          = -.35031621E-4
MEAN_MOTION_DOT = -.116E-5
MEAN_MOTION_DDOT = 0

CCSDS_OMM_VERS = 2.0
CREATION_DATE  = 
ORIGINATOR     = 

OBJECT_NAME    = COSMOS 2084
OBJECT_ID      = 1990-055A
CENTER_NAME    = EARTH
REF_FRAME      = TEME
TIME_SYSTEM    = UTC
MEAN_ELEMENT_THEORY = SGP/SGP4

EPOCH          = 2026-01-19T18:27:29.449440
MEAN_MOTION    = 15.05281748
ECCENTRICITY   = .00252357
INCLINATION    = 62.7905
RA_OF_ASC_NODE = 142.3878
ARG_OF_PERICENTER = 180.4901
MEAN_ANOMALY   = 179.6179

EPHEMERIS_TYPE = 0
CLASSIFICATION_TYPE = U
NORAD_CAT_ID   = 20663
ELEMENT_SET_NO = 999
REV_AT_EPOCH   = 92895
BSTAR          = .23287885E-3
MEAN_MOTION_DOT = .3165E-4
MEAN_MOTION_DDOT = 0

CCSDS_OMM_VERS = 2.0
CREATION_DATE  = 
ORIGINATOR     = 

OBJECT_NAME    = SL-6 R/B(2)
OBJECT_ID      = 1990-055D
CENTER_NAME    = EARTH
REF_FRAME      = TEME
TIME_SYSTEM    = UTC
MEAN_ELEMENT_THEORY = SGP/SGP4

EPOCH          = 2026-01-19T11:40:08.424768
MEAN_MOTION    = 15.03281653
ECCENTRICITY   = .00176281
INCLINATION    = 62.7823
RA_OF_ASC_NODE = 61.1385
ARG_OF_PERICENTER = 330.7561
MEAN_ANOMALY   = 29.2549

EPHEMERIS_TYPE = 0
CLASSIFICATION_TYPE = U
NORAD_CAT_ID   = 20666
ELEMENT_SET_NO = 999
REV_AT_EPOCH   = 93079
BSTAR          = .15373292E-3
MEAN_MOTION_DOT = .1901E-4
MEAN_MOTION_DDOT = 0

CCSDS_OMM_VERS = 2.0
CREATION_DATE  = 
ORIGINATOR     = 

OBJECT_NAME    = SL-8 R/B
OBJECT_ID      = 1990-078B
CENTER_NAME    = EARTH
REF_FRAME      = TEME
TIME_SYSTEM    = UTC
MEAN_ELEMENT_THEORY = SGP/SGP4

EPOCH          = 2026-01-19T19:53:26.734560
MEAN_MOTION    = 14.87231226
ECCENTRICITY   = .03687194
INCLINATION    = 82.9061
RA_OF_ASC_NODE = 295.1881
ARG_OF_PERICENTER = 177.7123
MEAN_ANOMALY   = 182.5902

EPHEMERIS_TYPE = 0
CLASSIFICATION_TYPE = U
NORAD_CAT_ID   = 20775
ELEMENT_SET_NO = 999
REV_AT_EPOCH   = 80203
BSTAR          = .52442144E-3
MEAN_MOTION_DOT = .17398E-3
MEAN_MOTION_DDOT = 0

CCSDS_OMM_VERS = 2.0
CREATION_DATE  = 
ORIGINATOR     = 

OBJECT_NAME    = SL-8 R/B
OBJECT_ID      = 1991-006B
CENTER_NAME    = EARTH
REF_FRAME      = TEME
TIME_SYSTEM    = UTC
MEAN_ELEMENT_THEORY = SGP/SGP4

EPOCH          = 2026-01-19T23:13:23.575008
MEAN_MOTION    = 13.77491554
ECCENTRICITY   = .00226553
INCLINATION    = 82.9409
RA_OF_ASC_NODE = 206.2757
ARG_OF_PERICENTER = 168.7956
MEAN_ANOMALY   = 301.3913

EPHEMERIS_TYPE = 0
CLASSIFICATION_TYPE = U
NORAD_CAT_ID   = 21088
ELEMENT_SET_NO = 999
REV_AT_EPOCH   = 75736
BSTAR          = -.57955865E-4
MEAN_MOTION_DOT = -.42E-6
MEAN_MOTION_DDOT = 0

CCSDS_OMM_VERS = 2.0
CREATION_DATE  = 
ORIGINATOR     = 

OBJECT_NAME    = OKEAN-3
OBJECT_ID      = 1991-039A
CENTER_NAME    = EARTH
REF_FRAME      = TEME
TIME_SYSTEM    = UTC
MEAN_ELEMENT_THEORY = SGP/SGP4

EPOCH          = 2026-01-19T23:56:50.122176
MEAN_MOTION    = 15.04373814
ECCENTRICITY   = .00158741
INCLINATION    = 82.5148
RA_OF_ASC_NODE = 24.0019
ARG_OF_PERICENTER = 130.7701
MEAN_ANOMALY   = 229.4906

EPHEMERIS_TYPE = 0
CLASSIFICATION_TYPE = U
NORAD_CAT_ID   = 21397
ELEMENT_SET_NO = 999
REV_AT_EPOCH   = 85771
BSTAR          = .27094477E-3
MEAN_MOTION_DOT = .3817E-4
MEAN_MOTION_DDOT = 0

CCSDS_OMM_VERS = 2.0
CREATION_DATE  = 
ORIGINATOR     = 

OBJECT_NAME    = COSMOS 2151
OBJECT_ID      = 1991-042A
CENTER_NAME    = EARTH
REF_FRAME      = TEME
TIME_SYSTEM    = UTC
MEAN_ELEMENT_THEORY = SGP/SGP4

EPOCH          = 2026-01-19T22:04:09.521760
MEAN_MOTION    = 14.99869762
ECCENTRICITY   = .00117047
INCLINATION    = 82.4987
RA_OF_ASC_NODE = 130.7089
ARG_OF_PERICENTER = 219.3619
MEAN_ANOMALY   = 140.6756

EPHEMERIS_TYPE = 0
CLASSIFICATION_TYPE = U
NORAD_CAT_ID   = 21422
ELEMENT_SET_NO = 999
REV_AT_EPOCH   = 85588
BSTAR          = .24601111E-3
MEAN_MOTION_DOT = .3078E-4
MEAN_MOTION_DDOT = 0

