DELTA 2 R/B(1)          
1 20453U 90008B   26019.69569724  .00054471  00000+0  78340-3 0  9992
2 20453  35.6055 134.7392 0101540 165.4275 194.9421 15.49067605918517
COSMOS 2058             
1 20465U 90010A   26019.71213663  .00003448  00000+0  20550-3 0  9997
2 20465  82.4674  95.6752 0010876 136.8284 223.3800 15.10838075934842
SL-14 R/B               
1 20466U 90010B   26019.85483616  .00000473  00000+0  54362-4 0  9994
2 20466  82.5046 313.2536 0021364  99.8946 260.4683 14.83513292921244
SL-14 R/B               
1 20511U 90018B   26019.69050427  .00000398  00000+0  47078-4 0  9997
2 20511  82.5208 268.8973 0014940 252.0945 107.8641 14.82089182915324
HST                     
1 20580U 90037B   26019.66585003  .00007728  00000+0  26197-3 0  9996
2 20580  28.4680  14.2260 0001657 286.0146  74.0267 15.28599511765804
SL-16 R/B               
1 20625U 90046B   26019.77838667 -.00000116  00000+0 -35032-4 0  9990
2 20625  70.9995  40.6348 0013736   8.3102 351.8245 14.15007819841473
COSMOS 2084             
1 20663U 90055A   26019.76909085  .00003165  00000+0  23288-3 0  9998
2 20663  62.7905 142.3878 0025235 180.4901 179.6179 15.05281748928955
SL-6 R/B(2)             
1 20666U 90055D   26019.48620862  .00001901  00000+0  15373-3 0  9995
2 20666  62.7823  61.1385 0017628 330.7561  29.2549 15.03281653930796
SL-8 R/B                
1 20775U 90078B   26019.82878165  .00017398  00000+0  52442-3 0  9995
2 20775  82.9061 295.1881 0368719 177.7123 182.5902 14.87231226802031
SL-8 R/B                
1 21088U 91006B   26019.96763397 -.00000042  00000+0 -57956-4 0  9996
2 21088  82.9409 206.2757 0022655 168.7956 301.3913 13.77491554757368
OKEAN-3                 
1 21397U 91039A   26019.99780234  .00003817  00000+0  27094-3 0  9997
2 21397  82.5148  24.0019 0015874 130.7701 229.4906 15.04373814857718
COSMOS 2151             
1 21422U 91042A   26019.91955465  .00003078  00000+0  24601-3 0  9992
2 21422  82.4987 130.7089 0011704 219.3619 140.6756 14.99869762855887
